Rank (2023-24),School,School URL,District,District URL,Address,City,City URL,Zip,County,Phone,Low Grade,High Grade,Is Title I,Is Charter,Is Magnet,Is Virtual,Number Students,Number Full-time Teachers,Student/Teacher Ratio,Percent Free/Disc Lunch,Percent African American,Percent American Indian,Percent Asian,Percent Hispanic,Percent Pacific Islander,Percent Two or More Races,Percent White,Average Standard Score (2023-24)
1,No. UT. Acad. for Math Engineering & Science,https://www.schooldigger.com/go/UT/schools/0006300993/school.aspx,No. UT. Acad. for Math Engineering & Science,https://www.schooldigger.com/go/UT/district/00063/search.aspx,2750 N University Park Blvd,Layton,https://www.schooldigger.com/go/UT/city/Layton/search.aspx,84041,Davis County,(801) 395-3350,10,12,No,Yes,Yes,No,713,30.9,23,11.50%,1.10%,0.30%,3.80%,11.80%,0.70%,5.50%,76.90%,99.9
2,Utah County Academy of Science,https://www.schooldigger.com/go/UT/schools/0002001106/school.aspx,Utah County Academy of Science,https://www.schooldigger.com/go/UT/district/00020/search.aspx,940 W 800 S,Orem,https://www.schooldigger.com/go/UT/city/Orem/search.aspx,84058,Utah County,(801) 863-2222,9,12,No,Yes,Yes,No,549,22,24.9,17.30%,1.10%,0.40%,2.90%,29.90%,0.70%,3.50%,61.60%,99.2
3,Intech Collegiate Academy,https://www.schooldigger.com/go/UT/schools/0003901129/school.aspx,Intech Collegiate Academy,https://www.schooldigger.com/go/UT/district/00039/search.aspx,1787 N Research Parkway,North Logan,https://www.schooldigger.com/go/UT/city/North+Logan/search.aspx,84341,Cache County,(435) 753-7377,7,12,Yes,Yes,Yes,No,199,10.7,18.5,28.60%,2.50%,1.00%,2.50%,10.10%,0.00%,4.00%,78.90%,98
4,Karl G. Maeser Preparatory Academy,https://www.schooldigger.com/go/UT/schools/0005601175/school.aspx,Karl G. Maeser Preparatory Academy,https://www.schooldigger.com/go/UT/district/00056/search.aspx,320 W 600 S,Lindon,https://www.schooldigger.com/go/UT/city/Lindon/search.aspx,84042,Utah County,(801) 235-9000,7,12,No,Yes,No,No,635,34.2,18.5,6.60%,0.80%,0.00%,8.80%,16.10%,0.50%,4.40%,69.40%,97.4
5,Crimson Cliffs High,https://www.schooldigger.com/go/UT/schools/0114001559/school.aspx,Washington District,https://www.schooldigger.com/go/UT/district/01140/search.aspx,4430 S Crimson Cliffs Way,Washington,https://www.schooldigger.com/go/UT/city/Washington/search.aspx,84790,Washington County,(435) 634-7015,10,12,No,No,No,No,1384,53.6,25.7,11.10%,0.50%,0.40%,0.90%,5.00%,1.10%,2.20%,89.80%,97.3
6,Skyline High,https://www.schooldigger.com/go/UT/schools/0036000261/school.aspx,Granite District,https://www.schooldigger.com/go/UT/district/00360/search.aspx,3251 E 3760 S,Salt Lake City,https://www.schooldigger.com/go/UT/city/Salt+Lake+City/search.aspx,84109,Salt Lake County,(385) 646-5420,7,12,No,No,No,No,2125,77.6,27.3,9.40%,0.60%,0.00%,6.00%,6.60%,0.50%,7.30%,78.90%,95.1
7,Academy for Math Engineering & Science,https://www.schooldigger.com/go/UT/schools/0001700904/school.aspx,Academy for Math Engineering & Science,https://www.schooldigger.com/go/UT/district/00017/search.aspx,5715 S 1300 E,Salt Lake City,https://www.schooldigger.com/go/UT/city/Salt+Lake+City/search.aspx,84121,Salt Lake County,(801) 278-9460,9,12,Yes,Yes,Yes,No,469,23.4,20,15.60%,3.20%,1.10%,10.90%,16.40%,5.80%,5.10%,57.60%,92.2
8,Career Technical High School,https://www.schooldigger.com/go/UT/schools/0114001647/school.aspx,Washington District,https://www.schooldigger.com/go/UT/district/01140/search.aspx,1001 White Dome Drive,Saint George,https://www.schooldigger.com/go/UT/city/Saint+George/search.aspx,84790,Washington County,(435) 673-3553,KG,12,(n/a),No,(n/a),No,506,28.3,17.8,30.20%,1.00%,0.60%,1.00%,15.60%,0.20%,2.40%,79.20%,90.5
9,Bingham High,https://www.schooldigger.com/go/UT/schools/0042000289/school.aspx,Jordan District,https://www.schooldigger.com/go/UT/district/00420/search.aspx,2160 W 10400 S,South Jordan,https://www.schooldigger.com/go/UT/city/South+Jordan/search.aspx,84095,Salt Lake County,(801) 256-5100,10,12,No,No,No,No,2471,99.3,24.8,11.70%,0.70%,0.30%,3.20%,11.40%,2.10%,4.10%,78.20%,90.2
10,Corner Canyon High,https://www.schooldigger.com/go/UT/schools/0014201428/school.aspx,Canyons District,https://www.schooldigger.com/go/UT/district/00142/search.aspx,12943 S. 700 E.,Draper,https://www.schooldigger.com/go/UT/city/Draper/search.aspx,84020,Salt Lake County,(801) 826-6401,8,12,No,No,No,No,2451,91.6,26.7,10.70%,1.50%,0.00%,2.90%,10.30%,0.80%,4.70%,79.90%,89.9
11,Weber Innovation High School,https://www.schooldigger.com/go/UT/schools/0120001482/school.aspx,Weber District,https://www.schooldigger.com/go/UT/district/01200/search.aspx,1007 W 12th Street,Ogden,https://www.schooldigger.com/go/UT/city/Ogden/search.aspx,84404,Weber County,(801) 476-6500,6,12,No,No,No,No,431,18.9,22.7,20.00%,1.40%,0.50%,0.90%,11.40%,0.20%,3.50%,82.10%,87.9
12,American Preparatory Academy - Draper #3,https://www.schooldigger.com/go/UT/schools/0000501471/school.aspx,American Preparatory Academy,https://www.schooldigger.com/go/UT/district/00005/search.aspx,11938 Lone Peak Parkway,Draper,https://www.schooldigger.com/go/UT/city/Draper/search.aspx,84020,Salt Lake County,(801) 810-3590,7,12,No,Yes,No,No,735,42.8,17.1,18.00%,1.80%,0.10%,20.00%,30.60%,1.20%,2.60%,43.70%,86.2
13,Desert Hills High,https://www.schooldigger.com/go/UT/schools/0114001290/school.aspx,Washington District,https://www.schooldigger.com/go/UT/district/01140/search.aspx,828 E Desert Hills Drive,Saint George,https://www.schooldigger.com/go/UT/city/Saint+George/search.aspx,84790,Washington County,(435) 674-0885,10,12,No,No,No,No,1208,46.6,25.9,16.40%,0.80%,0.70%,1.10%,8.80%,1.90%,2.70%,84.00%,82
14,Lone Peak High,https://www.schooldigger.com/go/UT/schools/0003000445/school.aspx,Alpine District,https://www.schooldigger.com/go/UT/district/00030/search.aspx,10189 N 4800 W,Highland,https://www.schooldigger.com/go/UT/city/Highland/search.aspx,84003,Utah County,(801) 610-8810,10,12,No,No,No,No,2507,88.6,28.2,6.70%,0.90%,0.10%,1.50%,5.30%,0.90%,4.20%,87.10%,81.1
15,Green Canyon High School,https://www.schooldigger.com/go/UT/schools/0012001512/school.aspx,Cache District,https://www.schooldigger.com/go/UT/district/00120/search.aspx,2960 N. Wolf Pack Way,North Logan,https://www.schooldigger.com/go/UT/city/North+Logan/search.aspx,84341,Cache County,(435) 792-9300,8,12,No,No,No,No,1676,68,24.6,18.50%,0.70%,0.40%,1.40%,11.90%,0.20%,2.40%,82.90%,79.6
16,Parowan High,https://www.schooldigger.com/go/UT/schools/0039000284/school.aspx,Iron District,https://www.schooldigger.com/go/UT/district/00390/search.aspx,50 W 100 N,Parowan,https://www.schooldigger.com/go/UT/city/Parowan/search.aspx,84761,Iron County,(435) 477-3366,7,12,No,No,No,No,350,21.1,16.5,34.00%,0.30%,0.60%,0.30%,5.10%,0.30%,1.10%,92.30%,79
17,Vanguard Academy,https://www.schooldigger.com/go/UT/schools/0018301475/school.aspx,Vanguard Academy,https://www.schooldigger.com/go/UT/district/00183/search.aspx,2650 South Decker Lake Lane,West Valley City,https://www.schooldigger.com/go/UT/city/West+Valley+City/search.aspx,84119,Salt Lake County,(801) 327-8724,7,12,Yes,Yes,No,No,568,30.8,18.4,51.80%,0.00%,0.00%,0.00%,0.90%,0.00%,0.00%,99.10%,79
18,North Summit High,https://www.schooldigger.com/go/UT/schools/0069000415/school.aspx,North Summit District,https://www.schooldigger.com/go/UT/district/00690/search.aspx,53 S 100 E,Coalville,https://www.schooldigger.com/go/UT/city/Coalville/search.aspx,84017,Summit County,(435) 336-5656,9,12,No,No,No,No,360,20.4,17.6,20.00%,0.00%,0.00%,0.60%,17.80%,0.00%,1.40%,80.30%,78.1
19,Success DSU,https://www.schooldigger.com/go/UT/schools/0003701470/school.aspx,Success Academy,https://www.schooldigger.com/go/UT/district/00037/search.aspx,225 South 700 East,St George,https://www.schooldigger.com/go/UT/city/St+George/search.aspx,84770,Washington County,(435) 652-7830,10,12,No,Yes,No,No,316,5.3,59.5,7.60%,1.60%,0.90%,1.60%,13.00%,1.30%,0.30%,81.30%,77.6
20,Park City High,https://www.schooldigger.com/go/UT/schools/0075000447/school.aspx,Park City District,https://www.schooldigger.com/go/UT/district/00750/search.aspx,1750 Kearns Blvd,Park City,https://www.schooldigger.com/go/UT/city/Park+City/search.aspx,84060,Summit County,(435) 645-5650,10,12,No,No,No,No,1222,65.4,18.6,15.80%,0.60%,0.00%,1.40%,16.70%,0.20%,3.40%,77.80%,77.3
21,Davis High,https://www.schooldigger.com/go/UT/schools/0021000115/school.aspx,Davis District,https://www.schooldigger.com/go/UT/district/00210/search.aspx,325 S Main,Kaysville,https://www.schooldigger.com/go/UT/city/Kaysville/search.aspx,84037,Davis County,(801) 402-8800,10,12,No,No,No,No,2225,85.5,26,8.60%,1.00%,0.20%,1.10%,5.90%,0.50%,2.00%,89.30%,77.1
22,Cedar City High,https://www.schooldigger.com/go/UT/schools/0039000278/school.aspx,Iron District,https://www.schooldigger.com/go/UT/district/00390/search.aspx,703 W 600 S,Cedar City,https://www.schooldigger.com/go/UT/city/Cedar+City/search.aspx,84720,Iron County,(435) 586-2820,9,12,No,No,No,No,1341,63.6,21,26.20%,0.70%,1.90%,1.30%,11.90%,1.00%,1.90%,81.40%,77.1
23,Hurricane High,https://www.schooldigger.com/go/UT/schools/0114000601/school.aspx,Washington District,https://www.schooldigger.com/go/UT/district/01140/search.aspx,345 W Tiger Blvd,Hurricane,https://www.schooldigger.com/go/UT/city/Hurricane/search.aspx,84737,Washington County,(435) 635-3280,PK,12,No,No,No,No,1164,46.3,25,30.20%,0.50%,0.50%,0.30%,13.70%,0.70%,2.00%,82.30%,76.5
24,Utah Online 7-12,https://www.schooldigger.com/go/UT/schools/0114001432/school.aspx,Washington District,https://www.schooldigger.com/go/UT/district/01140/search.aspx,121 W. Tabernacle,Saint George,https://www.schooldigger.com/go/UT/city/Saint+George/search.aspx,84770,Washington County,(435) 673-3553,6,12,No,No,No,Yes,1313,52.7,24.9,13.90%,1.40%,1.70%,1.80%,11.00%,1.70%,1.80%,80.70%,75.9
25,Wasatch High,https://www.schooldigger.com/go/UT/schools/0111000594/school.aspx,Wasatch District,https://www.schooldigger.com/go/UT/district/01110/search.aspx,930 S 500 E,Heber City,https://www.schooldigger.com/go/UT/city/Heber+City/search.aspx,84032,Wasatch County,(435) 654-0640,9,12,No,No,No,No,2542,114.6,22.1,17.00%,0.30%,0.10%,0.50%,19.40%,0.10%,2.20%,77.30%,75.9
26,American Fork High,https://www.schooldigger.com/go/UT/schools/0003000002/school.aspx,Alpine District,https://www.schooldigger.com/go/UT/district/00030/search.aspx,510 N 600 E,American Fork,https://www.schooldigger.com/go/UT/city/American+Fork/search.aspx,84003,Utah County,(801) 610-8800,10,12,No,No,No,No,2335,89.7,26,13.20%,0.50%,0.50%,0.90%,11.60%,1.10%,3.20%,82.10%,73.1
27,Morgan High,https://www.schooldigger.com/go/UT/schools/0057000363/school.aspx,Morgan District,https://www.schooldigger.com/go/UT/district/00570/search.aspx,55 N 200 E,Morgan,https://www.schooldigger.com/go/UT/city/Morgan/search.aspx,84050,Morgan County,(801) 829-3418,9,12,No,No,No,No,1143,46.9,24.3,9.20%,0.10%,0.30%,0.60%,3.40%,0.00%,1.70%,94.00%,72.8
28,Skyridge High School,https://www.schooldigger.com/go/UT/schools/0003001486/school.aspx,Alpine District,https://www.schooldigger.com/go/UT/district/00030/search.aspx,3000 North Center Street,Lehi,https://www.schooldigger.com/go/UT/city/Lehi/search.aspx,84043,Utah County,(801) 610-8820,9,12,No,No,No,No,2469,88.5,27.8,10.40%,0.90%,0.10%,1.60%,10.50%,2.10%,5.30%,79.50%,72.1
29,Brighton High,https://www.schooldigger.com/go/UT/schools/0014200291/school.aspx,Canyons District,https://www.schooldigger.com/go/UT/district/00142/search.aspx,2220 E 7695 S,Salt Lake City,https://www.schooldigger.com/go/UT/city/Salt+Lake+City/search.aspx,84121,Salt Lake County,(801) 826-5800,8,12,No,No,No,No,2393,92.1,25.9,15.00%,1.20%,0.10%,1.20%,10.30%,1.10%,6.40%,79.60%,69.8
30,Westlake High,https://www.schooldigger.com/go/UT/schools/0003001293/school.aspx,Alpine District,https://www.schooldigger.com/go/UT/district/00030/search.aspx,99 N 200 W,Saratoga Springs,https://www.schooldigger.com/go/UT/city/Saratoga+Springs/search.aspx,84045,Utah County,(801) 610-8815,10,12,No,No,No,No,2847,106.4,26.7,12.00%,1.10%,0.30%,0.70%,13.70%,1.60%,5.10%,77.50%,69.2
31,Timpanogos High,https://www.schooldigger.com/go/UT/schools/0003000362/school.aspx,Alpine District,https://www.schooldigger.com/go/UT/district/00030/search.aspx,1450 N 200 E,Orem,https://www.schooldigger.com/go/UT/city/Orem/search.aspx,84057,Utah County,(801) 610-8175,10,12,No,No,No,No,1455,60.8,23.9,22.50%,0.70%,0.20%,1.20%,22.90%,1.10%,2.50%,71.30%,68.8
32,Sky View High,https://www.schooldigger.com/go/UT/schools/0012000083/school.aspx,Cache District,https://www.schooldigger.com/go/UT/district/00120/search.aspx,520 S 250 E,Smithfield,https://www.schooldigger.com/go/UT/city/Smithfield/search.aspx,84335,Cache County,(435) 563-6273,8,12,No,No,No,No,1555,61.1,25.4,23.20%,0.80%,0.60%,0.60%,7.90%,0.60%,2.10%,87.50%,68.1
33,Timpview High,https://www.schooldigger.com/go/UT/schools/0081000466/school.aspx,Provo District,https://www.schooldigger.com/go/UT/district/00810/search.aspx,3570 N 650 E,Provo,https://www.schooldigger.com/go/UT/city/Provo/search.aspx,84604,Utah County,(801) 221-9720,9,12,No,No,No,No,2268,92.6,24.4,27.10%,1.00%,0.40%,2.60%,24.10%,3.70%,4.30%,63.90%,67.6
34,Itineris Early College High,https://www.schooldigger.com/go/UT/schools/0006700997/school.aspx,Itineris Early College High,https://www.schooldigger.com/go/UT/district/00067/search.aspx,8714 Roy Del Circle,West Jordan,https://www.schooldigger.com/go/UT/city/West+Jordan/search.aspx,84088,Salt Lake County,(385) 800-2140,9,12,Yes,Yes,No,No,384,18.5,20.7,27.30%,2.90%,0.50%,13.50%,36.70%,1.80%,3.40%,41.10%,67.1
35,Kanab High,https://www.schooldigger.com/go/UT/schools/0048000339/school.aspx,Kane District,https://www.schooldigger.com/go/UT/district/00480/search.aspx,59 E Cowboy Dr,Kanab,https://www.schooldigger.com/go/UT/city/Kanab/search.aspx,84741,Kane County,(435) 644-5821,9,12,No,No,No,No,330,14.5,22.7,25.20%,0.30%,0.60%,0.00%,7.60%,0.00%,3.30%,88.20%,66
36,Milford High,https://www.schooldigger.com/go/UT/schools/0006000038/school.aspx,Beaver District,https://www.schooldigger.com/go/UT/district/00060/search.aspx,62 N 300 W,Milford,https://www.schooldigger.com/go/UT/city/Milford/search.aspx,84751,Beaver County,(435) 387-2751,7,12,No,No,No,No,208,11.9,17.4,41.80%,0.50%,1.00%,0.50%,18.80%,1.40%,1.40%,76.40%,65
37,Orem High,https://www.schooldigger.com/go/UT/schools/0003000021/school.aspx,Alpine District,https://www.schooldigger.com/go/UT/district/00030/search.aspx,175 S 400 E,Orem,https://www.schooldigger.com/go/UT/city/Orem/search.aspx,84097,Utah County,(801) 610-8165,10,12,No,No,No,No,1299,52.3,24.8,24.50%,1.10%,0.50%,1.00%,23.70%,2.60%,4.50%,66.60%,64.4
38,Farmington High,https://www.schooldigger.com/go/UT/schools/0021001537/school.aspx,Davis District,https://www.schooldigger.com/go/UT/district/00210/search.aspx,548 W Glovers Lange,Farmington,https://www.schooldigger.com/go/UT/city/Farmington/search.aspx,84025,Davis County,(801) 402-9050,10,12,No,No,No,No,2172,78.3,27.7,6.70%,1.30%,0.10%,1.00%,4.90%,1.00%,2.40%,89.30%,64.3
39,Millard High,https://www.schooldigger.com/go/UT/schools/0054000361/school.aspx,Millard District,https://www.schooldigger.com/go/UT/district/00540/search.aspx,200 W Center St,Fillmore,https://www.schooldigger.com/go/UT/city/Fillmore/search.aspx,84631,Millard County,(435) 743-5610,9,12,No,No,No,No,418,18.5,22.5,48.60%,0.20%,1.20%,0.70%,15.60%,0.00%,2.60%,79.70%,64.2
40,Providence Hall,https://www.schooldigger.com/go/UT/schools/0012401202/school.aspx,Providence Hall,https://www.schooldigger.com/go/UT/district/00124/search.aspx,4795  W Patriot Ridge Drive,Herriman,https://www.schooldigger.com/go/UT/city/Herriman/search.aspx,84096,Salt Lake County,(801) 727-8260,KG,12,Yes,Yes,No,No,2104,121.7,17.2,20.30%,1.40%,0.00%,3.40%,22.80%,0.70%,6.50%,65.30%,62.8
41,Salem Hills High,https://www.schooldigger.com/go/UT/schools/0063001160/school.aspx,Nebo District,https://www.schooldigger.com/go/UT/district/00630/search.aspx,150 N Skyhawk Blvd,Salem,https://www.schooldigger.com/go/UT/city/Salem/search.aspx,84653,Utah County,(801) 423-3200,9,12,No,No,No,No,1585,69,22.9,17.20%,0.60%,0.30%,0.40%,11.80%,0.20%,3.50%,83.30%,62.1
42,North Sevier High,https://www.schooldigger.com/go/UT/schools/0093000542/school.aspx,Sevier District,https://www.schooldigger.com/go/UT/district/00930/search.aspx,350 W 400 N,Salina,https://www.schooldigger.com/go/UT/city/Salina/search.aspx,84654,Sevier County,(435) 529-3717,9,12,No,No,No,No,291,18.4,15.7,39.20%,0.30%,0.00%,0.70%,5.80%,1.70%,0.00%,91.40%,61.9
43,Davinci Academy,https://www.schooldigger.com/go/UT/schools/0006500995/school.aspx,Davinci Academy,https://www.schooldigger.com/go/UT/district/00065/search.aspx,2033 Grant Ave,Ogden,https://www.schooldigger.com/go/UT/city/Ogden/search.aspx,84401,Weber County,(801) 409-0700,KG,12,Yes,Yes,No,No,1269,61.4,20.6,30.90%,0.70%,0.20%,0.90%,23.60%,0.30%,4.50%,69.70%,61.9
44,Uintah High,https://www.schooldigger.com/go/UT/schools/0108000585/school.aspx,Uintah District,https://www.schooldigger.com/go/UT/district/01080/search.aspx,1880 W 500 N,Vernal,https://www.schooldigger.com/go/UT/city/Vernal/search.aspx,84078,Uintah County,(435) 781-3110,9,12,No,No,No,No,1856,74.2,24.9,30.30%,0.80%,4.10%,0.40%,10.70%,0.20%,2.20%,81.70%,60.7
45,Viewmont High,https://www.schooldigger.com/go/UT/schools/0021000151/school.aspx,Davis District,https://www.schooldigger.com/go/UT/district/00210/search.aspx,120 W 1000 N,Bountiful,https://www.schooldigger.com/go/UT/city/Bountiful/search.aspx,84010,Davis County,(801) 402-4200,10,12,No,No,No,No,1538,62.4,24.6,14.60%,1.30%,0.20%,1.00%,9.00%,1.20%,3.20%,84.10%,60.4
46,South Sevier High,https://www.schooldigger.com/go/UT/schools/0093000547/school.aspx,Sevier District,https://www.schooldigger.com/go/UT/district/00930/search.aspx,430 W 100 S,Monroe,https://www.schooldigger.com/go/UT/city/Monroe/search.aspx,84754,Sevier County,(435) 527-4651,9,12,No,No,No,No,442,22.9,19.2,36.70%,0.50%,7.90%,0.20%,4.10%,0.70%,0.00%,86.70%,60.4
47,Ridgeline High School,https://www.schooldigger.com/go/UT/schools/0012001487/school.aspx,Cache District,https://www.schooldigger.com/go/UT/district/00120/search.aspx,180 N 300 W,Millville,https://www.schooldigger.com/go/UT/city/Millville/search.aspx,84326,Cache County,(435) 792-7780,8,12,No,No,No,No,1861,72.3,25.7,17.70%,0.40%,0.60%,1.30%,10.30%,0.50%,2.40%,84.50%,59.7
48,Alta High,https://www.schooldigger.com/go/UT/schools/0014200659/school.aspx,Canyons District,https://www.schooldigger.com/go/UT/district/00142/search.aspx,11055 S 1000 E,Sandy,https://www.schooldigger.com/go/UT/city/Sandy/search.aspx,84094,Salt Lake County,(801) 826-5600,8,12,No,No,No,No,2350,93.2,25.1,14.90%,1.10%,0.40%,2.80%,13.20%,2.10%,4.90%,75.60%,59.6
49,Hillcrest High,https://www.schooldigger.com/go/UT/schools/0014200305/school.aspx,Canyons District,https://www.schooldigger.com/go/UT/district/00142/search.aspx,7350 S 900 E,Midvale,https://www.schooldigger.com/go/UT/city/Midvale/search.aspx,84047,Salt Lake County,(801) 826-6000,8,12,No,No,No,No,2367,100.8,23.4,39.40%,3.00%,0.90%,9.10%,31.20%,0.80%,5.40%,49.60%,59
50,Mountain Heights Academy,https://www.schooldigger.com/go/UT/schools/0013801285/school.aspx,Mountain Heights Academy,https://www.schooldigger.com/go/UT/district/00138/search.aspx,9067 S 1300 W Suite 204,West Jordan,https://www.schooldigger.com/go/UT/city/West+Jordan/search.aspx,84088,Salt Lake County,(801) 721-6329,7,12,No,Yes,No,Yes,882,70.9,12.4,14.10%,1.50%,0.50%,1.40%,14.60%,1.50%,3.40%,77.20%,58.5
51,Weber High,https://www.schooldigger.com/go/UT/schools/0120000645/school.aspx,Weber District,https://www.schooldigger.com/go/UT/district/01200/search.aspx,430 W Weber High Dr,Ogden,https://www.schooldigger.com/go/UT/city/Ogden/search.aspx,84414,Weber County,(801) 476-3700,10,12,No,No,No,No,2074,99.1,20.9,18.40%,0.40%,0.40%,1.30%,9.10%,0.30%,2.50%,86.00%,57.6
52,Enterprise High,https://www.schooldigger.com/go/UT/schools/0114000599/school.aspx,Washington District,https://www.schooldigger.com/go/UT/district/01140/search.aspx,565 S 200 E,Enterprise,https://www.schooldigger.com/go/UT/city/Enterprise/search.aspx,84725,Washington County,(435) 878-2248,7,12,No,No,No,No,558,28.5,19.5,42.70%,0.20%,1.30%,0.20%,12.70%,0.00%,1.60%,84.10%,57
53,Springville High,https://www.schooldigger.com/go/UT/schools/0063000402/school.aspx,Nebo District,https://www.schooldigger.com/go/UT/district/00630/search.aspx,1205 E 900 S,Springville,https://www.schooldigger.com/go/UT/city/Springville/search.aspx,84663,Utah County,(801) 489-2870,6,12,No,No,No,No,1675,73.3,22.8,23.90%,0.50%,0.80%,0.80%,19.50%,1.20%,4.40%,72.80%,57
54,Highland High,https://www.schooldigger.com/go/UT/schools/0087000496/school.aspx,Salt Lake District,https://www.schooldigger.com/go/UT/district/00870/search.aspx,2166 S 1700 E,Salt Lake City,https://www.schooldigger.com/go/UT/city/Salt+Lake+City/search.aspx,84106,Salt Lake County,(801) 484-4343,9,12,No,No,No,No,2009,85.6,23.4,31.00%,3.90%,1.40%,3.00%,22.50%,2.70%,4.60%,61.80%,56.2
55,Snow Canyon High,https://www.schooldigger.com/go/UT/schools/0114000206/school.aspx,Washington District,https://www.schooldigger.com/go/UT/district/01140/search.aspx,1385 N Lava Flow Dr,St George,https://www.schooldigger.com/go/UT/city/St+George/search.aspx,84770,Washington County,(435) 634-1967,10,12,No,No,No,No,1279,51.7,24.7,29.50%,0.40%,2.80%,0.50%,23.90%,1.00%,2.90%,68.50%,56.2
56,Delta High,https://www.schooldigger.com/go/UT/schools/0054000356/school.aspx,Millard District,https://www.schooldigger.com/go/UT/district/00540/search.aspx,50 W 300 N,Delta,https://www.schooldigger.com/go/UT/city/Delta/search.aspx,84624,Millard County,(435) 864-5610,9,12,No,No,No,No,592,27.4,21.5,41.60%,0.00%,0.30%,0.20%,19.10%,0.00%,1.40%,79.10%,55.9
57,Lehi High,https://www.schooldigger.com/go/UT/schools/0003000017/school.aspx,Alpine District,https://www.schooldigger.com/go/UT/district/00030/search.aspx,180 N 500 E,Lehi,https://www.schooldigger.com/go/UT/city/Lehi/search.aspx,84043,Utah County,(801) 610-8805,10,12,No,No,No,No,2082,77.2,26.9,11.50%,1.00%,0.50%,0.20%,9.30%,1.00%,4.60%,83.50%,55.4
58,Dixie High,https://www.schooldigger.com/go/UT/schools/0114000597/school.aspx,Washington District,https://www.schooldigger.com/go/UT/district/01140/search.aspx,350 E 700 S,St George,https://www.schooldigger.com/go/UT/city/St+George/search.aspx,84770,Washington County,(435) 673-4682,10,12,No,No,No,No,1209,56.1,21.5,33.60%,0.80%,1.00%,0.30%,23.90%,2.30%,2.90%,68.70%,55.1
59,Olympus High,https://www.schooldigger.com/go/UT/schools/0036000248/school.aspx,Granite District,https://www.schooldigger.com/go/UT/district/00360/search.aspx,4055 S 2300 E,Salt Lake City,https://www.schooldigger.com/go/UT/city/Salt+Lake+City/search.aspx,84124,Salt Lake County,(385) 646-5400,9,12,No,No,No,No,2167,83.2,26,18.40%,1.90%,0.30%,1.80%,11.70%,0.30%,4.60%,79.40%,53.3
60,Emery High,https://www.schooldigger.com/go/UT/schools/0027000178/school.aspx,Emery District,https://www.schooldigger.com/go/UT/district/00270/search.aspx,975 N Center,Castle Dale,https://www.schooldigger.com/go/UT/city/Castle+Dale/search.aspx,84513,Emery County,(435) 381-2689,9,12,No,No,No,No,636,33.4,18.9,32.40%,0.20%,0.00%,0.30%,5.30%,0.00%,0.60%,93.60%,53.3
61,Fremont High,https://www.schooldigger.com/go/UT/schools/0120000221/school.aspx,Weber District,https://www.schooldigger.com/go/UT/district/01200/search.aspx,1900 N 4700 W,Plain City,https://www.schooldigger.com/go/UT/city/Plain+City/search.aspx,84404,Weber County,(801) 452-4000,10,12,No,No,No,No,2252,97.1,23.1,15.40%,0.70%,0.20%,0.40%,8.50%,0.40%,2.00%,87.90%,53
62,Pine View High,https://www.schooldigger.com/go/UT/schools/0114000807/school.aspx,Washington District,https://www.schooldigger.com/go/UT/district/01140/search.aspx,2850 E 750 N,St George,https://www.schooldigger.com/go/UT/city/St+George/search.aspx,84790,Washington County,(435) 628-5255,10,12,No,No,No,No,1136,51.8,21.9,33.30%,0.90%,2.60%,0.50%,27.60%,2.10%,3.10%,63.30%,52.4
63,Mountain Ridge High,https://www.schooldigger.com/go/UT/schools/0042001525/school.aspx,Jordan District,https://www.schooldigger.com/go/UT/district/00420/search.aspx,14100 S Sentinel Ridge Blvd,Herriman,https://www.schooldigger.com/go/UT/city/Herriman/search.aspx,84096,Salt Lake County,(801) 412-1700,10,12,No,No,No,No,2598,106.7,24.3,12.10%,0.70%,0.30%,0.90%,14.50%,1.20%,3.80%,78.60%,50.9
64,Gunnison Valley High,https://www.schooldigger.com/go/UT/schools/0096000550/school.aspx,South Sanpete District,https://www.schooldigger.com/go/UT/district/00960/search.aspx,35 E 600 S,Gunnison,https://www.schooldigger.com/go/UT/city/Gunnison/search.aspx,84634,Sanpete County,(435) 528-7256,9,12,No,No,No,No,332,21.5,15.3,35.50%,0.90%,1.20%,0.00%,17.20%,0.00%,2.10%,78.60%,50.8
65,Summit Academy High School,https://www.schooldigger.com/go/UT/schools/0006601396/school.aspx,Summit Academy,https://www.schooldigger.com/go/UT/district/00066/search.aspx,14942 S 560 West,Bluffdale,https://www.schooldigger.com/go/UT/city/Bluffdale/search.aspx,84065,Salt Lake County,(801) 495-3272,KG,12,(n/a),Yes,(n/a),No,547,31.3,17.4,18.60%,2.70%,0.00%,3.50%,14.60%,0.20%,4.60%,74.40%,50.4
66,Bountiful High,https://www.schooldigger.com/go/UT/schools/0021000105/school.aspx,Davis District,https://www.schooldigger.com/go/UT/district/00210/search.aspx,695 S Orchard Dr,Bountiful,https://www.schooldigger.com/go/UT/city/Bountiful/search.aspx,84010,Davis County,(801) 402-3900,10,12,No,No,No,No,1526,60.1,25.3,12.80%,1.20%,0.10%,1.20%,11.70%,2.00%,2.80%,80.90%,50.4
67,Beehive Science & Technology Academy,https://www.schooldigger.com/go/UT/schools/0002301060/school.aspx,Beehive Science & Technology Academy,https://www.schooldigger.com/go/UT/district/00023/search.aspx,2165 East 9400 South,Sandy,https://www.schooldigger.com/go/UT/city/Sandy/search.aspx,84093,Salt Lake County,(801) 576-0070,6,12,Yes,Yes,Yes,No,402,21,19,23.10%,3.20%,0.00%,18.20%,15.40%,2.50%,4.70%,56.00%,50.1
68,American Leadership Academy,https://www.schooldigger.com/go/UT/schools/0003301056/school.aspx,American Leadership Academy,https://www.schooldigger.com/go/UT/district/00033/search.aspx,898 W 1100 S,Spanish Fork,https://www.schooldigger.com/go/UT/city/Spanish+Fork/search.aspx,84660,Utah County,(801) 794-2226,KG,12,Yes,Yes,No,No,1620,86.7,18.6,39.10%,1.70%,0.10%,0.50%,38.00%,0.30%,2.60%,56.80%,49.1
69,Salt Lake Center for Science Education,https://www.schooldigger.com/go/UT/schools/0012301208/school.aspx,Salt Lake Center for Science Education,https://www.schooldigger.com/go/UT/district/00123/search.aspx,1400 W Goodwin Ave,Salt Lake City,https://www.schooldigger.com/go/UT/city/Salt+Lake+City/search.aspx,84116,Salt Lake County,(801) 578-8226,6,12,Yes,Yes,No,No,363,21.3,17,44.90%,0.80%,0.60%,1.10%,46.60%,0.30%,4.70%,45.70%,48.6
70,Beaver High,https://www.schooldigger.com/go/UT/schools/0006000036/school.aspx,Beaver District,https://www.schooldigger.com/go/UT/district/00060/search.aspx,195 E Center,Beaver,https://www.schooldigger.com/go/UT/city/Beaver/search.aspx,84713,Beaver County,(435) 438-2301,7,12,No,No,No,No,459,22.6,20.2,42.50%,0.40%,0.70%,0.00%,15.50%,0.20%,2.00%,81.30%,48.4
71,Water Canyon High,https://www.schooldigger.com/go/UT/schools/0114001521/school.aspx,Washington District,https://www.schooldigger.com/go/UT/district/01140/search.aspx,880 N. Carling St.,Hildale,https://www.schooldigger.com/go/UT/city/Hildale/search.aspx,84784,Washington County,(435) 847-1407,7,12,No,No,No,No,344,19.2,17.8,36.60%,0.00%,0.60%,0.00%,3.50%,0.00%,1.50%,94.50%,48.2
72,Carbon High,https://www.schooldigger.com/go/UT/schools/0015000089/school.aspx,Carbon District,https://www.schooldigger.com/go/UT/district/00150/search.aspx,750 E 400 N,Price,https://www.schooldigger.com/go/UT/city/Price/search.aspx,84501,Carbon County,(435) 637-2463,9,12,No,No,No,No,1009,48.8,20.6,35.20%,0.30%,1.20%,0.40%,14.10%,0.30%,0.40%,83.30%,48.2
73,Grantsville High,https://www.schooldigger.com/go/UT/schools/0105000566/school.aspx,Tooele District,https://www.schooldigger.com/go/UT/district/01050/search.aspx,155 E Cherry St,Grantsville,https://www.schooldigger.com/go/UT/city/Grantsville/search.aspx,84029,Tooele County,(435) 884-4500,9,12,No,No,No,No,1105,50.8,21.7,17.90%,0.60%,0.10%,0.60%,11.60%,0.80%,1.10%,84.90%,48
74,Maple Mountain High,https://www.schooldigger.com/go/UT/schools/0063001159/school.aspx,Nebo District,https://www.schooldigger.com/go/UT/district/00630/search.aspx,51 N Spanish Fork Pkwy,Spanish Fork,https://www.schooldigger.com/go/UT/city/Spanish+Fork/search.aspx,84660,Utah County,(801) 794-6740,7,12,No,No,No,No,1837,67.9,27,10.70%,0.30%,0.30%,0.70%,10.00%,0.30%,4.00%,84.40%,47.6
75,Manti High,https://www.schooldigger.com/go/UT/schools/0096000553/school.aspx,South Sanpete District,https://www.schooldigger.com/go/UT/district/00960/search.aspx,100 W 500 N,Manti,https://www.schooldigger.com/go/UT/city/Manti/search.aspx,84642,Sanpete County,(435) 835-2281,9,12,No,No,No,No,675,34.6,19.5,36.10%,1.00%,0.30%,0.10%,13.50%,0.60%,2.10%,82.40%,46.1
76,Syracuse High,https://www.schooldigger.com/go/UT/schools/0021001205/school.aspx,Davis District,https://www.schooldigger.com/go/UT/district/00210/search.aspx,665 S 2000 W,Syracuse,https://www.schooldigger.com/go/UT/city/Syracuse/search.aspx,84075,Davis County,(801) 402-7900,10,12,No,No,No,No,2566,99.2,25.8,14.00%,0.90%,0.40%,1.40%,11.10%,0.90%,4.10%,81.30%,44.6
77,Layton High,https://www.schooldigger.com/go/UT/schools/0021000128/school.aspx,Davis District,https://www.schooldigger.com/go/UT/district/00210/search.aspx,440 Lancer Ln,Layton,https://www.schooldigger.com/go/UT/city/Layton/search.aspx,84041,Davis County,(801) 402-4800,10,12,No,No,No,No,2211,81.6,27,17.00%,1.00%,0.60%,0.60%,14.80%,0.90%,2.40%,79.50%,44
78,Box Elder High,https://www.schooldigger.com/go/UT/schools/0009000046/school.aspx,Box Elder District,https://www.schooldigger.com/go/UT/district/00090/search.aspx,380 S 600 W,Brigham City,https://www.schooldigger.com/go/UT/city/Brigham+City/search.aspx,84302,Box Elder County,(435) 734-4840,10,12,No,No,No,No,1603,66.3,24.1,24.10%,0.40%,0.70%,0.30%,11.30%,0.60%,2.20%,84.40%,42.8
79,Canyon View High,https://www.schooldigger.com/go/UT/schools/0039000473/school.aspx,Iron District,https://www.schooldigger.com/go/UT/district/00390/search.aspx,166 W 1925 N,Cedar City,https://www.schooldigger.com/go/UT/city/Cedar+City/search.aspx,84721,Iron County,(435) 586-2813,9,12,No,No,No,No,1057,52.5,20.1,34.20%,0.50%,1.90%,0.70%,13.50%,0.20%,2.30%,81.00%,42.7
80,Woods Cross High,https://www.schooldigger.com/go/UT/schools/0021000157/school.aspx,Davis District,https://www.schooldigger.com/go/UT/district/00210/search.aspx,600 W 2200 S,Woods Cross,https://www.schooldigger.com/go/UT/city/Woods+Cross/search.aspx,84087,Davis County,(801) 402-4500,10,12,No,No,No,No,1613,66.8,24.1,17.70%,0.60%,0.40%,2.00%,14.90%,2.70%,3.30%,75.90%,42.7
81,Richfield High,https://www.schooldigger.com/go/UT/schools/0093000544/school.aspx,Sevier District,https://www.schooldigger.com/go/UT/district/00930/search.aspx,495 West Center,Richfield,https://www.schooldigger.com/go/UT/city/Richfield/search.aspx,84701,Sevier County,(435) 896-8247,9,12,No,No,No,No,753,35.5,21.1,41.00%,0.70%,8.40%,0.30%,5.00%,1.20%,0.00%,84.50%,41.3
82,American Academy of Innovation,https://www.schooldigger.com/go/UT/schools/0018601483/school.aspx,American Academy of Innovation,https://www.schooldigger.com/go/UT/district/00186/search.aspx,5410 W South Jordan Parkway,South Jordan,https://www.schooldigger.com/go/UT/city/South+Jordan/search.aspx,84009,Salt Lake County,(801) 810-4786,6,12,Yes,Yes,No,No,365,22.3,16.3,19.20%,1.60%,0.80%,2.20%,13.70%,0.30%,3.60%,77.80%,41.2
83,Herriman High,https://www.schooldigger.com/go/UT/schools/0042001338/school.aspx,Jordan District,https://www.schooldigger.com/go/UT/district/00420/search.aspx,11917 S 6000 W,Herriman,https://www.schooldigger.com/go/UT/city/Herriman/search.aspx,84096,Salt Lake County,(801) 567-8530,10,12,No,No,No,No,2415,96.8,24.9,16.30%,0.90%,0.00%,2.20%,19.80%,1.70%,4.60%,70.90%,41
84,South Summit High,https://www.schooldigger.com/go/UT/schools/0099000557/school.aspx,South Summit District,https://www.schooldigger.com/go/UT/district/00990/search.aspx,45 S 300 E,Kamas,https://www.schooldigger.com/go/UT/city/Kamas/search.aspx,84036,Summit County,(435) 783-4313,9,12,No,No,No,No,524,25.9,20.1,15.10%,0.00%,0.00%,0.20%,16.00%,0.00%,0.60%,83.20%,40.6
85,Riverton High,https://www.schooldigger.com/go/UT/schools/0042000661/school.aspx,Jordan District,https://www.schooldigger.com/go/UT/district/00420/search.aspx,12476 S Silverwolf Way (2700 W,Riverton,https://www.schooldigger.com/go/UT/city/Riverton/search.aspx,84065,Salt Lake County,(801) 256-5800,10,12,No,No,No,No,2326,90.5,25.6,12.10%,0.70%,0.30%,1.00%,10.50%,0.50%,4.10%,82.90%,39.2
86,Murray High,https://www.schooldigger.com/go/UT/schools/0060000374/school.aspx,Murray District,https://www.schooldigger.com/go/UT/district/00600/search.aspx,5440 S State,Murray,https://www.schooldigger.com/go/UT/city/Murray/search.aspx,84107,Salt Lake County,(801) 264-7460,10,12,No,No,No,No,1374,63.5,21.6,31.50%,3.70%,0.90%,2.00%,26.10%,0.80%,4.40%,61.90%,38.9
87,San Juan High,https://www.schooldigger.com/go/UT/schools/0090000537/school.aspx,San Juan District,https://www.schooldigger.com/go/UT/district/00900/search.aspx,311 N 100 E,Blanding,https://www.schooldigger.com/go/UT/city/Blanding/search.aspx,84511,San Juan County,(435) 678-1301,6,12,Yes,No,No,No,426,22.3,19,55.90%,0.20%,38.30%,0.00%,6.30%,0.20%,3.50%,51.40%,38.9
88,Pleasant Grove High,https://www.schooldigger.com/go/UT/schools/0003000024/school.aspx,Alpine District,https://www.schooldigger.com/go/UT/district/00030/search.aspx,700 E 200 S,Pleasant Grove,https://www.schooldigger.com/go/UT/city/Pleasant+Grove/search.aspx,84062,Utah County,(801) 610-8170,10,12,No,No,No,No,2009,79.1,25.3,16.60%,0.80%,0.30%,0.50%,14.00%,0.80%,3.60%,79.80%,38.3
89,Utah Arts Academy,https://www.schooldigger.com/go/UT/schools/0001200673/school.aspx,Utah Arts Academy,https://www.schooldigger.com/go/UT/district/00012/search.aspx,1091 N Bluff St,Saint George,https://www.schooldigger.com/go/UT/city/Saint+George/search.aspx,84770,Washington County,(435) 414-4535,9,12,No,Yes,Yes,No,272,19,14.2,27.60%,2.90%,0.70%,1.50%,13.20%,0.70%,0.70%,80.10%,36.3
90,Paradigm High School,https://www.schooldigger.com/go/UT/schools/0005201153/school.aspx,Paradigm High School,https://www.schooldigger.com/go/UT/district/00052/search.aspx,11577 S 3600 W,South Jordan,https://www.schooldigger.com/go/UT/city/South+Jordan/search.aspx,84095,Salt Lake County,(801) 676-1018,7,12,No,Yes,No,No,384,19.1,20,16.40%,0.30%,0.00%,1.00%,14.10%,0.50%,3.40%,80.70%,34.3
91,Northridge High,https://www.schooldigger.com/go/UT/schools/0021000045/school.aspx,Davis District,https://www.schooldigger.com/go/UT/district/00210/search.aspx,2430 N Hillfield Rd,Layton,https://www.schooldigger.com/go/UT/city/Layton/search.aspx,84041,Davis County,(801) 402-8500,10,12,No,No,No,No,1955,75.4,25.9,25.70%,1.70%,0.80%,1.20%,22.60%,1.00%,4.20%,68.40%,34.2
92,Spanish Fork High,https://www.schooldigger.com/go/UT/schools/0063000399/school.aspx,Nebo District,https://www.schooldigger.com/go/UT/district/00630/search.aspx,99 N 300 W,Spanish Fork,https://www.schooldigger.com/go/UT/city/Spanish+Fork/search.aspx,84660,Utah County,(801) 798-4060,9,12,No,No,No,No,1546,61.7,25,18.30%,0.80%,0.20%,0.10%,14.20%,0.70%,3.20%,80.70%,34.1
93,Utah Connections Academy,https://www.schooldigger.com/go/UT/schools/0015101386/school.aspx,Utah Connections Academy,https://www.schooldigger.com/go/UT/district/00151/search.aspx,675 E. 2100 South,Salt Lake City,https://www.schooldigger.com/go/UT/city/Salt+Lake+City/search.aspx,84106,Salt Lake County,(801) 298-6660,KG,12,Yes,Yes,No,Yes,947,36.3,26,32.40%,2.00%,1.10%,2.00%,18.90%,2.60%,0.80%,72.40%,33.9
94,Mountain View High,https://www.schooldigger.com/go/UT/schools/0003000706/school.aspx,Alpine District,https://www.schooldigger.com/go/UT/district/00030/search.aspx,665 W Center,Orem,https://www.schooldigger.com/go/UT/city/Orem/search.aspx,84057,Utah County,(801) 610-8160,10,12,No,No,No,No,1541,63.7,24.1,31.40%,1.20%,0.60%,0.90%,36.10%,1.20%,3.20%,56.70%,33
95,Stansbury High,https://www.schooldigger.com/go/UT/schools/0105001177/school.aspx,Tooele District,https://www.schooldigger.com/go/UT/district/01050/search.aspx,5300 N Aberdeen Lane,Stansbury Park,https://www.schooldigger.com/go/UT/city/Stansbury+Park/search.aspx,84074,Tooele County,(435) 882-2479,9,12,No,No,No,No,2296,81.7,28,17.40%,1.50%,0.70%,1.50%,16.00%,1.60%,2.20%,76.40%,32.7
96,North Sanpete High,https://www.schooldigger.com/go/UT/schools/0066000412/school.aspx,North Sanpete District,https://www.schooldigger.com/go/UT/district/00660/search.aspx,390 E 700 S,Mt Pleasant,https://www.schooldigger.com/go/UT/city/Mt+Pleasant/search.aspx,84647,Sanpete County,(435) 462-2452,9,12,No,No,No,No,788,31.7,24.8,47.60%,0.30%,1.50%,0.00%,15.90%,0.50%,1.40%,80.50%,32.3
97,Cedar Valley High,https://www.schooldigger.com/go/UT/schools/0003001538/school.aspx,Alpine District,https://www.schooldigger.com/go/UT/district/00030/search.aspx,1389 East Aviator Avenue,Eagle Mountain,https://www.schooldigger.com/go/UT/city/Eagle+Mountain/search.aspx,84005,Utah County,(801) 610-8400,7,12,No,No,No,No,3190,114.3,27.9,19.50%,0.80%,0.40%,0.60%,15.80%,1.80%,4.80%,75.80%,31.9
98,Kings Peak High,https://www.schooldigger.com/go/UT/schools/0042001615/school.aspx,Jordan District,https://www.schooldigger.com/go/UT/district/00420/search.aspx,7905 South Redwood Road,West Jordan,https://www.schooldigger.com/go/UT/city/West+Jordan/search.aspx,84088,Salt Lake County,(801) 567-8020,9,12,No,No,No,Yes,255,17,14.9,23.10%,0.40%,0.80%,0.40%,19.20%,0.00%,4.30%,74.90%,29.6
99,Utah Virtual Academy,https://www.schooldigger.com/go/UT/schools/0013001196/school.aspx,Utah Virtual Academy,https://www.schooldigger.com/go/UT/district/00130/search.aspx,310 E 4500 S,Murray,https://www.schooldigger.com/go/UT/city/Murray/search.aspx,84107,Salt Lake County,(801) 262-4922,KG,12,Yes,Yes,No,Yes,1732,88.7,19.5,52.40%,2.10%,0.60%,1.00%,15.80%,2.00%,5.80%,72.70%,29.4
100,Spectrum Academy - Pleasant Grove,https://www.schooldigger.com/go/UT/schools/0004201464/school.aspx,Spectrum Academy,https://www.schooldigger.com/go/UT/district/00042/search.aspx,867 South 800 West,Pleasant Grove,https://www.schooldigger.com/go/UT/city/Pleasant+Grove/search.aspx,84062,Utah County,(801) 785-9019,KG,12,No,Yes,No,No,712,64,11.1,22.50%,1.00%,0.30%,1.30%,11.50%,0.40%,6.20%,79.20%,28.3
101,Jordan High,https://www.schooldigger.com/go/UT/schools/0014200307/school.aspx,Canyons District,https://www.schooldigger.com/go/UT/district/00142/search.aspx,95 E 9825 S,Sandy,https://www.schooldigger.com/go/UT/city/Sandy/search.aspx,84070,Salt Lake County,(801) 826-6200,8,12,No,No,No,No,1797,80.2,22.4,36.20%,1.30%,0.40%,1.40%,32.90%,1.00%,4.50%,58.40%,27.8
102,Clearfield High,https://www.schooldigger.com/go/UT/schools/0021000112/school.aspx,Davis District,https://www.schooldigger.com/go/UT/district/00210/search.aspx,931 S 1000 E,Clearfield,https://www.schooldigger.com/go/UT/city/Clearfield/search.aspx,84015,Davis County,(801) 402-8200,10,12,No,No,No,No,2058,80.6,25.5,23.90%,1.80%,0.60%,1.50%,15.80%,1.30%,3.60%,75.40%,26.2
103,Logan High,https://www.schooldigger.com/go/UT/schools/0051000351/school.aspx,Logan City District,https://www.schooldigger.com/go/UT/district/00510/search.aspx,162 W 100 S,Logan,https://www.schooldigger.com/go/UT/city/Logan/search.aspx,84321,Cache County,(435) 755-2380,9,12,No,No,No,No,1491,63.9,23.3,49.30%,2.80%,0.60%,3.20%,34.30%,2.60%,2.10%,54.40%,26
104,Duchesne High,https://www.schooldigger.com/go/UT/schools/0024000162/school.aspx,Duchesne District,https://www.schooldigger.com/go/UT/district/00240/search.aspx,155 W. Main Street,Duchesne,https://www.schooldigger.com/go/UT/city/Duchesne/search.aspx,84021,Duchesne County,(435) 738-1260,7,12,No,No,No,No,410,19.7,20.7,34.60%,0.50%,0.70%,0.20%,12.70%,0.00%,1.70%,84.10%,25.4
105,Payson High,https://www.schooldigger.com/go/UT/schools/0063000390/school.aspx,Nebo District,https://www.schooldigger.com/go/UT/district/00630/search.aspx,1050 S Main,Payson,https://www.schooldigger.com/go/UT/city/Payson/search.aspx,84651,Utah County,(801) 465-6025,6,12,No,No,No,No,1601,68.6,23.3,25.30%,0.70%,0.20%,0.10%,18.10%,0.10%,1.90%,78.80%,25.2
106,Merit College Preparatory Academy,https://www.schooldigger.com/go/UT/schools/0013101220/school.aspx,Merit College Preparatory Academy,https://www.schooldigger.com/go/UT/district/00131/search.aspx,1440 W Center Street,Springville,https://www.schooldigger.com/go/UT/city/Springville/search.aspx,84663,Utah County,(801) 491-7600,7,12,Yes,Yes,No,No,493,29.2,16.8,38.30%,0.80%,0.60%,0.60%,27.00%,0.80%,1.20%,69.00%,25
107,Ogden High,https://www.schooldigger.com/go/UT/schools/0072001271/school.aspx,Ogden City District,https://www.schooldigger.com/go/UT/district/00720/search.aspx,2828 Harrison Blvd,Ogden,https://www.schooldigger.com/go/UT/city/Ogden/search.aspx,84403,Weber County,(801) 737-8673,10,12,Yes,No,No,No,1113,57,19.5,51.70%,1.30%,0.70%,1.00%,46.50%,0.60%,3.80%,46.10%,24.2
108,Mountain Crest High,https://www.schooldigger.com/go/UT/schools/0012000792/school.aspx,Cache District,https://www.schooldigger.com/go/UT/district/00120/search.aspx,255 S 800 E,Hyrum,https://www.schooldigger.com/go/UT/city/Hyrum/search.aspx,84319,Cache County,(435) 245-6093,8,12,No,No,No,No,1554,61.9,25.1,25.40%,0.50%,0.50%,0.50%,11.00%,0.60%,1.80%,85.10%,24
109,West High,https://www.schooldigger.com/go/UT/schools/0087000524/school.aspx,Salt Lake District,https://www.schooldigger.com/go/UT/district/00870/search.aspx,241 N 300 W,Salt Lake City,https://www.schooldigger.com/go/UT/city/Salt+Lake+City/search.aspx,84103,Salt Lake County,(801) 578-8500,7,12,No,No,No,No,2505,112.8,22.2,53.10%,4.80%,1.20%,7.30%,46.70%,8.00%,5.10%,26.70%,23.4
110,Bear River High,https://www.schooldigger.com/go/UT/schools/0009000043/school.aspx,Box Elder District,https://www.schooldigger.com/go/UT/district/00090/search.aspx,1450 S Main,Garland,https://www.schooldigger.com/go/UT/city/Garland/search.aspx,84312,Box Elder County,(435) 734-4840,10,12,No,No,No,No,1196,48.6,24.6,24.50%,0.30%,0.30%,0.40%,9.30%,0.20%,1.40%,88.00%,23
111,Copper Hills High,https://www.schooldigger.com/go/UT/schools/0042000346/school.aspx,Jordan District,https://www.schooldigger.com/go/UT/district/00420/search.aspx,5445 W 7800 S,West Jordan,https://www.schooldigger.com/go/UT/city/West+Jordan/search.aspx,84081,Salt Lake County,(801) 256-5300,10,12,No,No,No,No,2959,118.4,24.9,22.90%,1.40%,0.50%,1.90%,27.60%,1.30%,4.40%,63.00%,22.5
112,Freedom Preparatory Academy,https://www.schooldigger.com/go/UT/schools/0006200992/school.aspx,Freedom Preparatory Academy,https://www.schooldigger.com/go/UT/district/00062/search.aspx,1190 W 900 N,Provo,https://www.schooldigger.com/go/UT/city/Provo/search.aspx,84604,Utah County,(801) 437-3100,PK,12,Yes,Yes,No,No,1319,73.7,17.8,45.60%,1.60%,0.50%,2.40%,48.00%,1.70%,1.30%,44.50%,22.5
113,Provo High,https://www.schooldigger.com/go/UT/schools/0081000459/school.aspx,Provo District,https://www.schooldigger.com/go/UT/district/00810/search.aspx,1199 North Lakeshore Dr,Provo,https://www.schooldigger.com/go/UT/city/Provo/search.aspx,84601,Utah County,(801) 373-6550,7,12,No,No,No,No,1981,81.1,24.4,37.90%,0.60%,1.00%,1.30%,39.80%,3.00%,3.60%,50.70%,22.4
114,Tooele High,https://www.schooldigger.com/go/UT/schools/0105000574/school.aspx,Tooele District,https://www.schooldigger.com/go/UT/district/01050/search.aspx,301 W Vine,Tooele,https://www.schooldigger.com/go/UT/city/Tooele/search.aspx,84074,Tooele County,(435) 833-1978,9,12,No,No,No,No,1878,86.3,21.7,30.80%,1.50%,0.80%,0.90%,21.30%,1.70%,1.80%,71.40%,21.2
115,Venture Academy,https://www.schooldigger.com/go/UT/schools/0013301216/school.aspx,Venture Academy,https://www.schooldigger.com/go/UT/district/00133/search.aspx,495 N 1500 W,Marriott Slaterville City,https://www.schooldigger.com/go/UT/city/Marriott+Slaterville+City/search.aspx,84404,Weber County,(801) 393-3900,KG,12,Yes,Yes,No,No,801,43.2,18.5,23.50%,0.60%,0.00%,0.60%,18.40%,1.00%,2.10%,77.20%,20.8
116,Union High,https://www.schooldigger.com/go/UT/schools/0024000171/school.aspx,Duchesne District,https://www.schooldigger.com/go/UT/district/00240/search.aspx,850 East Lagoon Street,Roosevelt,https://www.schooldigger.com/go/UT/city/Roosevelt/search.aspx,84066,Duchesne County,(435) 725-4525,9,12,No,No,No,No,1155,46,25,33.60%,0.30%,9.10%,0.30%,10.10%,0.20%,4.50%,75.50%,20.2
117,East High,https://www.schooldigger.com/go/UT/schools/0087000486/school.aspx,Salt Lake District,https://www.schooldigger.com/go/UT/district/00870/search.aspx,840 S 1300 E,Salt Lake City,https://www.schooldigger.com/go/UT/city/Salt+Lake+City/search.aspx,84102,Salt Lake County,(801) 583-1661,9,12,No,No,No,No,1863,84.9,21.9,54.70%,5.50%,0.80%,4.30%,46.40%,5.10%,3.30%,34.60%,19.9
118,American Preparatory Academy - Accelerated School,https://www.schooldigger.com/go/UT/schools/0000501404/school.aspx,American Preparatory Academy,https://www.schooldigger.com/go/UT/district/00005/search.aspx,3636 W 3100 S,West Valley City,https://www.schooldigger.com/go/UT/city/West+Valley+City/search.aspx,84119,Salt Lake County,(385) 351-3090,KG,12,Yes,Yes,No,No,1473,81.9,17.9,54.00%,7.20%,0.10%,8.00%,67.00%,1.60%,1.80%,14.20%,18.5
119,West Jordan High,https://www.schooldigger.com/go/UT/schools/0042000769/school.aspx,Jordan District,https://www.schooldigger.com/go/UT/district/00420/search.aspx,8136 S 2700 W,West Jordan,https://www.schooldigger.com/go/UT/city/West+Jordan/search.aspx,84088,Salt Lake County,(801) 256-5600,10,12,No,No,No,No,1870,83.1,22.4,37.10%,2.00%,0.30%,1.60%,35.60%,3.50%,4.70%,52.30%,16.6
120,Juab High,https://www.schooldigger.com/go/UT/schools/0045000334/school.aspx,Juab District,https://www.schooldigger.com/go/UT/district/00450/search.aspx,802 N 650 E,Nephi,https://www.schooldigger.com/go/UT/city/Nephi/search.aspx,84648,Juab County,(435) 623-1764,9,12,No,No,No,No,887,36.3,24.3,18.60%,0.20%,0.00%,0.20%,5.20%,0.10%,1.60%,92.70%,16.2
121,Taylorsville High,https://www.schooldigger.com/go/UT/schools/0036000764/school.aspx,Granite District,https://www.schooldigger.com/go/UT/district/00360/search.aspx,5225 S Redwood Road,Taylorsville,https://www.schooldigger.com/go/UT/city/Taylorsville/search.aspx,84123,Salt Lake County,(385) 646-5455,9,12,No,No,No,No,2694,99.3,27.1,45.10%,2.90%,0.90%,3.20%,36.20%,3.90%,3.70%,49.30%,15.8
122,Utah Military Academy,https://www.schooldigger.com/go/UT/schools/0017601463/school.aspx,Utah Military Academy,https://www.schooldigger.com/go/UT/district/00176/search.aspx,5120 S. 1050 W.,Riverdale,https://www.schooldigger.com/go/UT/city/Riverdale/search.aspx,84405,Weber County,(801) 689-3013,7,12,Yes,Yes,No,No,528,34.9,15,32.60%,1.90%,0.20%,3.00%,30.50%,2.30%,5.10%,57.00%,14.9
123,Rockwell Charter High School,https://www.schooldigger.com/go/UT/schools/0012501199/school.aspx,Rockwell Charter High School,https://www.schooldigger.com/go/UT/district/00125/search.aspx,3435 E Stonebridge Lane,Eagle Mountain,https://www.schooldigger.com/go/UT/city/Eagle+Mountain/search.aspx,84005,Utah County,(801) 789-7625,7,12,No,Yes,No,No,265,15.3,17.2,18.10%,1.10%,0.40%,3.00%,16.60%,0.00%,2.60%,75.10%,12.4
124,Grand County High,https://www.schooldigger.com/go/UT/schools/0033000191/school.aspx,Grand District,https://www.schooldigger.com/go/UT/district/00330/search.aspx,608 S 400 E,Moab,https://www.schooldigger.com/go/UT/city/Moab/search.aspx,84532,Grand County,(435) 259-8931,9,12,No,No,No,No,453,27.8,16.2,24.70%,0.20%,5.50%,0.40%,21.00%,0.70%,2.40%,69.80%,11.4
125,Roy High,https://www.schooldigger.com/go/UT/schools/0120000634/school.aspx,Weber District,https://www.schooldigger.com/go/UT/district/01200/search.aspx,2150 W 4800 S,Roy,https://www.schooldigger.com/go/UT/city/Roy/search.aspx,84067,Weber County,(801) 476-3600,10,12,No,No,No,No,1871,92.5,20.2,35.30%,1.40%,0.80%,1.50%,22.80%,1.10%,3.60%,68.70%,10.9
126,Bonneville High,https://www.schooldigger.com/go/UT/schools/0120000613/school.aspx,Weber District,https://www.schooldigger.com/go/UT/district/01200/search.aspx,251 E 4800 S,Ogden,https://www.schooldigger.com/go/UT/city/Ogden/search.aspx,84405,Weber County,(801) 452-4050,10,12,No,No,No,No,1405,68.2,20.5,34.50%,1.50%,0.30%,1.20%,22.00%,1.10%,2.60%,71.30%,9.6
127,Cyprus High,https://www.schooldigger.com/go/UT/schools/0036000210/school.aspx,Granite District,https://www.schooldigger.com/go/UT/district/00360/search.aspx,8623 W 3000 S,Magna,https://www.schooldigger.com/go/UT/city/Magna/search.aspx,84044,Salt Lake County,(385) 646-5300,9,12,No,No,No,No,2772,101.2,27.3,47.80%,2.80%,0.50%,1.50%,39.40%,2.80%,4.70%,48.20%,9.3
128,Innovations High School,https://www.schooldigger.com/go/UT/schools/0087001422/school.aspx,Salt Lake District,https://www.schooldigger.com/go/UT/district/00870/search.aspx,1700 South State Street,Salt Lake City,https://www.schooldigger.com/go/UT/city/Salt+Lake+City/search.aspx,84115,Salt Lake County,(801) 481-4946,9,12,No,No,No,No,284,7.3,38.9,41.90%,4.60%,0.40%,2.50%,49.60%,1.10%,3.50%,38.40%,8.6
129,Salt Lake Academy High School,https://www.schooldigger.com/go/UT/schools/0019701517/school.aspx,Salt Lake Academy High School,https://www.schooldigger.com/go/UT/district/00197/search.aspx,14787 S Academy Pkwy,Herriman,https://www.schooldigger.com/go/UT/city/Herriman/search.aspx,84096,Salt Lake County,(801) 597-3096,9,12,No,Yes,No,No,414,11.7,35.1,11.10%,6.80%,0.00%,1.40%,52.40%,0.70%,2.70%,36.00%,6.7
130,Utah Military Academy - Camp Williams,https://www.schooldigger.com/go/UT/schools/0017601501/school.aspx,Utah Military Academy,https://www.schooldigger.com/go/UT/district/00176/search.aspx,3901 West Waterberry Drive,Lehi,https://www.schooldigger.com/go/UT/city/Lehi/search.aspx,84043,Utah County,(385) 498-6167,7,12,No,Yes,No,No,374,23.7,15.7,31.30%,2.90%,0.50%,1.60%,38.50%,1.90%,5.30%,49.20%,6.5
131,Kearns High,https://www.schooldigger.com/go/UT/schools/0036000234/school.aspx,Granite District,https://www.schooldigger.com/go/UT/district/00360/search.aspx,5525 S Cougar Ln,Kearns,https://www.schooldigger.com/go/UT/city/Kearns/search.aspx,84118,Salt Lake County,(385) 646-5380,9,12,No,No,No,No,2408,93.9,25.6,54.90%,2.60%,0.70%,1.70%,45.60%,4.10%,5.40%,39.90%,6.3
132,Hunter High,https://www.schooldigger.com/go/UT/schools/0036000898/school.aspx,Granite District,https://www.schooldigger.com/go/UT/district/00360/search.aspx,4200 S 5600 W,West Valley City,https://www.schooldigger.com/go/UT/city/West+Valley+City/search.aspx,84128,Salt Lake County,(385) 646-5360,9,12,No,No,No,No,2616,105.2,24.8,54.30%,3.20%,0.50%,3.50%,48.90%,3.70%,5.90%,34.30%,6
133,Cottonwood High,https://www.schooldigger.com/go/UT/schools/0036000207/school.aspx,Granite District,https://www.schooldigger.com/go/UT/district/00360/search.aspx,5715 S 1300 E,Salt Lake City,https://www.schooldigger.com/go/UT/city/Salt+Lake+City/search.aspx,84121,Salt Lake County,(385) 646-5264,9,12,Yes,No,No,No,1495,65.4,22.8,52.80%,6.20%,1.50%,5.20%,33.50%,1.10%,6.70%,45.80%,5.8
134,Ben Lomond High,https://www.schooldigger.com/go/UT/schools/0072001281/school.aspx,Ogden City District,https://www.schooldigger.com/go/UT/district/00720/search.aspx,1080 9th Street,Ogden,https://www.schooldigger.com/go/UT/city/Ogden/search.aspx,84404,Weber County,(801) 737-7900,10,12,Yes,No,No,No,1338,61.9,21.6,60.80%,1.00%,0.40%,0.80%,60.60%,1.00%,4.00%,32.20%,5.8
135,Fast Forward High,https://www.schooldigger.com/go/UT/schools/0001900906/school.aspx,Fast Forward High,https://www.schooldigger.com/go/UT/district/00019/search.aspx,875 W 1400 N,Logan,https://www.schooldigger.com/go/UT/city/Logan/search.aspx,84321,Cache County,(435) 713-4255,9,12,Yes,Yes,No,No,444,14.7,30,35.10%,1.10%,1.40%,1.80%,30.20%,0.50%,2.90%,62.20%,5.6
136,Granger High,https://www.schooldigger.com/go/UT/schools/0036000218/school.aspx,Granite District,https://www.schooldigger.com/go/UT/district/00360/search.aspx,3690 S 3600 W,West Valley City,https://www.schooldigger.com/go/UT/city/West+Valley+City/search.aspx,84119,Salt Lake County,(385) 646-5320,8,12,Yes,No,No,No,3434,127.1,27,63.70%,3.10%,0.70%,2.90%,47.00%,4.30%,6.40%,35.50%,3.3
137,Whitehorse High,https://www.schooldigger.com/go/UT/schools/0090000667/school.aspx,San Juan District,https://www.schooldigger.com/go/UT/district/00900/search.aspx,1415 Hwy 162,Montezuma Creek,https://www.schooldigger.com/go/UT/city/Montezuma+Creek/search.aspx,84534,San Juan County,(435) 678-1209,7,12,Yes,No,No,No,304,17.6,17.2,96.70%,0.00%,98.70%,0.00%,0.70%,0.00%,0.70%,0.00%,2.7
138,East Hollywood High,https://www.schooldigger.com/go/UT/schools/0003601072/school.aspx,East Hollywood High,https://www.schooldigger.com/go/UT/district/00036/search.aspx,2185 S 3600 W,West Valley City,https://www.schooldigger.com/go/UT/city/West+Valley+City/search.aspx,84119,Salt Lake County,(801) 886-8181,9,12,Yes,Yes,Yes,No,271,13.5,19.9,53.50%,4.10%,3.00%,0.00%,25.80%,4.80%,5.90%,56.50%,1.4